<?xml version="1.0"?>
<gpx version="1.1" creator="GDAL 3.8.4" xmlns:xsi="http://www.w3.org/2001/XMLSchema-instance" xmlns="http://www.topografix.com/GPX/1/1" xsi:schemaLocation="http://www.topografix.com/GPX/1/1 http://www.topografix.com/GPX/1/1/gpx.xsd">
<metadata>
<bounds minlat="50.928801327789820" minlon="4.697429792128035" maxlat="50.940452197219315" maxlon="4.708008553748727"/>                                         
</metadata>
<rte>
  <rtept lat="50.929123234686777" lon="4.700883191866573">
  </rtept>
  <rtept lat="50.929324393161586" lon="4.70069347524397">
  </rtept>
  <rtept lat="50.92935417440895" lon="4.700643191213846">
  </rtept>
  <rtept lat="50.929445462260098" lon="4.700607783401002">
  </rtept>
  <rtept lat="50.929454695848115" lon="4.700568171329898">
  </rtept>
  <rtept lat="50.929607626524003" lon="4.700500746728992">
  </rtept>
  <rtept lat="50.929574312626023" lon="4.700197498488611">
  </rtept>
  <rtept lat="50.929784535954603" lon="4.700025879094587">
  </rtept>
  <rtept lat="50.929955566905285" lon="4.700005477849437">
  </rtept>
  <rtept lat="50.930125310191642" lon="4.700428759584989">
  </rtept>
  <rtept lat="50.930633110469536" lon="4.703743949370534">
  </rtept>
  <rtept lat="50.932464919143278" lon="4.703310077690619">
  </rtept>
  <rtept lat="50.932679184188203" lon="4.704870068765891">
  </rtept>
  <rtept lat="50.932834067798893" lon="4.704914499341988">
  </rtept>
  <rtept lat="50.933400314169511" lon="4.704608425588201">
  </rtept>
  <rtept lat="50.933596092271827" lon="4.704700054868432">
  </rtept>
  <rtept lat="50.933769761476633" lon="4.705332652659199">
  </rtept>
  <rtept lat="50.933768964210152" lon="4.705603212071713">
  </rtept>
  <rtept lat="50.933693280948418" lon="4.705757777190546">
  </rtept>
  <rtept lat="50.933197975206696" lon="4.705970568589185">
  </rtept>
  <rtept lat="50.933003657817054" lon="4.706156721417353">
  </rtept>
  <rtept lat="50.933014533629958" lon="4.706333568327278">
  </rtept>
  <rtept lat="50.933379464596825" lon="4.707039732085348">
  </rtept>
  <rtept lat="50.93343884025338" lon="4.707004097121824">
  </rtept>
  <rtept lat="50.933780744030422" lon="4.707017454068999">
  </rtept>
  <rtept lat="50.934187052239636" lon="4.706836479878813">
  </rtept>
  <rtept lat="50.935584367311087" lon="4.706096435934546">
  </rtept>
  <rtept lat="50.93615292777671" lon="4.705779552416471">
  </rtept>
  <rtept lat="50.936710142587444" lon="4.705444538676956">
  </rtept>
  <rtept lat="50.9373450846998" lon="4.705034325984895">
  </rtept>
  <rtept lat="50.938043863803195" lon="4.704620964326413">
  </rtept>
  <rtept lat="50.93866938789786" lon="4.704311681179038">
  </rtept>
  <rtept lat="50.938854424906296" lon="4.704179548943866">
  </rtept>
  <rtept lat="50.939005427011089" lon="4.703993046409594">
  </rtept>
  <rtept lat="50.939081054926604" lon="4.703856500280741">
  </rtept>
  <rtept lat="50.939177505472976" lon="4.703615475989706">
  </rtept>
  <rtept lat="50.939255285676808" lon="4.703522240052597">
  </rtept>
  <rtept lat="50.93964798436528" lon="4.703315858766332">
  </rtept>
  <rtept lat="50.940047595250434" lon="4.703084268560459">
  </rtept>
  <rtept lat="50.940097787976576" lon="4.703070204373034">
  </rtept>
  <rtept lat="50.940141131439809" lon="4.703059697982102">
  </rtept>
  <rtept lat="50.940186754469586" lon="4.70304920827902">
  </rtept>
  <rtept lat="50.940232345830417" lon="4.703049542424612">
  </rtept>
  <rtept lat="50.940282454101876" lon="4.703064341826352">
  </rtept>
  <rtept lat="50.940316626508469" lon="4.703071808372695">
  </rtept>
  <rtept lat="50.940426520706488" lon="4.702910251670336">
  </rtept>
  <rtept lat="50.940447258378462" lon="4.70283463454454">
  </rtept>
  <rtept lat="50.940452197219315" lon="4.702704780899147">
  </rtept>
  <rtept lat="50.94036879130249" lon="4.702383054290701">
  </rtept>
  <rtept lat="50.940298503898269" lon="4.702252650750357">
  </rtept>
  <rtept lat="50.939652585362062" lon="4.702522134910257">
  </rtept>
  <rtept lat="50.93936736521681" lon="4.702613854878914">
  </rtept>
  <rtept lat="50.93909819686133" lon="4.702673219740677">
  </rtept>
  <rtept lat="50.938792681895343" lon="4.702689022710591">
  </rtept>
  <rtept lat="50.938585304369447" lon="4.702665857015486">
  </rtept>
  <rtept lat="50.938138898825201" lon="4.702529097753961">
  </rtept>
  <rtept lat="50.936832778982101" lon="4.702494285791297">
  </rtept>
  <rtept lat="50.935471837768198" lon="4.701715895218646">
  </rtept>
  <rtept lat="50.935417233195629" lon="4.701679419976009">
  </rtept>
  <rtept lat="50.935376579335561" lon="4.701549247476588">
  </rtept>
  <rtept lat="50.935349487188965" lon="4.701458858354405">
  </rtept>
  <rtept lat="50.93532220587624" lon="4.701433405761334">
  </rtept>
  <rtept lat="50.935288106853577" lon="4.701400688167489">
  </rtept>
  <rtept lat="50.935028487764413" lon="4.701312211522147">
  </rtept>
  <rtept lat="50.934839661313276" lon="4.701180960467692">
  </rtept>
  <rtept lat="50.934710009125361" lon="4.701082610071386">
  </rtept>
  <rtept lat="50.934532643208271" lon="4.700929798737279">
  </rtept>
  <rtept lat="50.934078353460734" lon="4.700367318353868">
  </rtept>
  <rtept lat="50.933942291045206" lon="4.700121015686566">
  </rtept>
  <rtept lat="50.93377921734772" lon="4.698178976138471">
  </rtept>
  <rtept lat="50.933799117547416" lon="4.697601913844611">
  </rtept>
  <rtept lat="50.9333983903879" lon="4.697433078494755">
  </rtept>
  <rtept lat="50.932942475642236" lon="4.697429792128035">
  </rtept>
  <rtept lat="50.932845590690746" lon="4.697825914856306">
  </rtept>
  <rtept lat="50.932552494501138" lon="4.698278337396807">
  </rtept>
  <rtept lat="50.932264768379319" lon="4.698449414390367">
  </rtept>
  <rtept lat="50.931658234934709" lon="4.698502747277946">
  </rtept>
  <rtept lat="50.930978879960435" lon="4.698512264294056">
  </rtept>
  <rtept lat="50.930746259120802" lon="4.698546655257587">
  </rtept>
  <rtept lat="50.930162083397306" lon="4.698751651725865">
  </rtept>
  <rtept lat="50.929755839292376" lon="4.698914644638257">
  </rtept>
  <rtept lat="50.929386422823285" lon="4.698955256703391">
  </rtept>
  <rtept lat="50.92886655425427" lon="4.698994778711623">
  </rtept>
  <rtept lat="50.929123234686777" lon="4.700883191866573">
  </rtept>
</rte>
<rte>
  <rtept lat="50.930633110469536" lon="4.703743949370534">
  </rtept>
  <rtept lat="50.930099322058624" lon="4.704332642646376">
  </rtept>
  <rtept lat="50.929187888822625" lon="4.705022720255918">
  </rtept>
  <rtept lat="50.92880132778982" lon="4.706261949194803">
  </rtept>
  <rtept lat="50.929383994891111" lon="4.706690387904296">
  </rtept>
  <rtept lat="50.929889946031686" lon="4.707163711400141">
  </rtept>
  <rtept lat="50.930185121266085" lon="4.707696070986704">
  </rtept>
  <rtept lat="50.931007544188979" lon="4.707974842937388">
  </rtept>
  <rtept lat="50.931466932445275" lon="4.708008553748727">
  </rtept>
  <rtept lat="50.931974317831646" lon="4.70799717709806">
  </rtept>
  <rtept lat="50.932779976977159" lon="4.70747296577588">
  </rtept>
  <rtept lat="50.933379464596825" lon="4.707039732085348">
  </rtept>
</rte>
</gpx>
