{
"type": "FeatureCollection",
"name": "route",
"crs": { "type": "name", "properties": { "name": "urn:ogc:def:crs:OGC:1.3:CRS84" } },
"features": [
{ "type": "Feature", "properties": { "fid": 1, "name": "Wijgmaalbroek", "date_created": null, "type": "Main Route", "Nr": "1" }, "geometry": { "type": "LineString", "coordinates": [ [ 4.700883191866573, 50.929123234686777 ], [ 4.70069347524397, 50.929324393161586 ], [ 4.700643191213846, 50.92935417440895 ], [ 4.700607783401002, 50.929445462260098 ], [ 4.700568171329898, 50.929454695848115 ], [ 4.700500746728992, 50.929607626524003 ], [ 4.700197498488611, 50.929574312626023 ], [ 4.700025879094587, 50.929784535954603 ], [ 4.700005477849437, 50.929955566905285 ], [ 4.700428759584989, 50.930125310191642 ], [ 4.703743949370534, 50.930633110469536 ], [ 4.703310077690619, 50.932464919143278 ], [ 4.704870068765891, 50.932679184188203 ], [ 4.704914499341988, 50.932834067798893 ], [ 4.704608425588201, 50.933400314169511 ], [ 4.704700054868432, 50.933596092271827 ], [ 4.705332652659199, 50.933769761476633 ], [ 4.705603212071713, 50.933768964210152 ], [ 4.705757777190546, 50.933693280948418 ], [ 4.705970568589185, 50.933197975206696 ], [ 4.706156721417353, 50.933003657817054 ], [ 4.706333568327278, 50.933014533629958 ], [ 4.707039732085348, 50.933379464596825 ], [ 4.707004097121824, 50.93343884025338 ], [ 4.707017454068999, 50.933780744030422 ], [ 4.706836479878813, 50.934187052239636 ], [ 4.706096435934546, 50.935584367311087 ], [ 4.705779552416471, 50.93615292777671 ], [ 4.705444538676956, 50.936710142587444 ], [ 4.705034325984895, 50.9373450846998 ], [ 4.704620964326413, 50.938043863803195 ], [ 4.704311681179038, 50.93866938789786 ], [ 4.704179548943866, 50.938854424906296 ], [ 4.703993046409594, 50.939005427011089 ], [ 4.703856500280741, 50.939081054926604 ], [ 4.703615475989706, 50.939177505472976 ], [ 4.703522240052597, 50.939255285676808 ], [ 4.703315858766332, 50.93964798436528 ], [ 4.703084268560459, 50.940047595250434 ], [ 4.703070204373034, 50.940097787976576 ], [ 4.703059697982102, 50.940141131439809 ], [ 4.70304920827902, 50.940186754469586 ], [ 4.703049542424612, 50.940232345830417 ], [ 4.703064341826352, 50.940282454101876 ], [ 4.703071808372695, 50.940316626508469 ], [ 4.702910251670336, 50.940426520706488 ], [ 4.70283463454454, 50.940447258378462 ], [ 4.702704780899147, 50.940452197219315 ], [ 4.702383054290701, 50.94036879130249 ], [ 4.702252650750357, 50.940298503898269 ], [ 4.702522134910257, 50.939652585362062 ], [ 4.702613854878914, 50.93936736521681 ], [ 4.702673219740677, 50.93909819686133 ], [ 4.702689022710591, 50.938792681895343 ], [ 4.702665857015486, 50.938585304369447 ], [ 4.702529097753961, 50.938138898825201 ], [ 4.702494285791297, 50.936832778982101 ], [ 4.701715895218646, 50.935471837768198 ], [ 4.701679419976009, 50.935417233195629 ], [ 4.701549247476588, 50.935376579335561 ], [ 4.701458858354405, 50.935349487188965 ], [ 4.701433405761334, 50.93532220587624 ], [ 4.701400688167489, 50.935288106853577 ], [ 4.701312211522147, 50.935028487764413 ], [ 4.701180960467692, 50.934839661313276 ], [ 4.701082610071386, 50.934710009125361 ], [ 4.700929798737279, 50.934532643208271 ], [ 4.700367318353868, 50.934078353460734 ], [ 4.700121015686566, 50.933942291045206 ], [ 4.698178976138471, 50.93377921734772 ], [ 4.697601913844611, 50.933799117547416 ], [ 4.697433078494755, 50.9333983903879 ], [ 4.697429792128035, 50.932942475642236 ], [ 4.697825914856306, 50.932845590690746 ], [ 4.698278337396807, 50.932552494501138 ], [ 4.698449414390367, 50.932264768379319 ], [ 4.698502747277946, 50.931658234934709 ], [ 4.698512264294056, 50.930978879960435 ], [ 4.698546655257587, 50.930746259120802 ], [ 4.698751651725865, 50.930162083397306 ], [ 4.698914644638257, 50.929755839292376 ], [ 4.698955256703391, 50.929386422823285 ], [ 4.698994778711623, 50.92886655425427 ], [ 4.700883191866573, 50.929123234686777 ] ] } },
{ "type": "Feature", "properties": { "fid": 2, "name": "Wijgmaalbroek", "date_created": null, "type": "Variant", "Nr": "1a" }, "geometry": { "type": "LineString", "coordinates": [ [ 4.703743949370534, 50.930633110469536 ], [ 4.704332642646376, 50.930099322058624 ], [ 4.705022720255918, 50.929187888822625 ], [ 4.706261949194803, 50.92880132778982 ], [ 4.706690387904296, 50.929383994891111 ], [ 4.707163711400141, 50.929889946031686 ], [ 4.707696070986704, 50.930185121266085 ], [ 4.707974842937388, 50.931007544188979 ], [ 4.708008553748727, 50.931466932445275 ], [ 4.70799717709806, 50.931974317831646 ], [ 4.70747296577588, 50.932779976977159 ], [ 4.707039732085348, 50.933379464596825 ] ] } }
]
}
