{
"type": "FeatureCollection",
"name": "poi",
"crs": { "type": "name", "properties": { "name": "urn:ogc:def:crs:OGC:1.3:CRS84" } },
"features": [
{ "type": "Feature", "properties": { "fid": 1, "Name": "Start Wijgmaalbroek", "Type": "Starting point", "Nr": 10 }, "geometry": { "type": "Point", "coordinates": [ 4.700883191866573, 50.929123234686777 ] } },
{ "type": "Feature", "properties": { "fid": 2, "Name": "Steenuil", "Type": "Waarneming", "Nr": null }, "geometry": { "type": "Point", "coordinates": [ 4.704887080710701, 50.937608243042362 ] } },
{ "type": "Feature", "properties": { "fid": 3, "Name": "Icarusblauwtje", "Type": "waarneming", "Nr": null }, "geometry": { "type": "Point", "coordinates": [ 4.702071161787006, 50.936033527857184 ] } },
{ "type": "Feature", "properties": { "fid": 4, "Name": "Koekoek", "Type": "Info", "Nr": null }, "geometry": { "type": "Point", "coordinates": [ 4.70358343959916, 50.931508595271545 ] } }
]
}
