{
"type": "FeatureCollection",
"name": "routes_overview",
"crs": { "type": "name", "properties": { "name": "urn:ogc:def:crs:OGC:1.3:CRS84" } },
"features": [
{ "type": "Feature", "properties": { "fid": 1, "name": "Wijgmaalbroek", "date_created": null, "type": "Main Route", "Nr": "1" }, "geometry": { "type": "LineString", "coordinates": [ [ 4.700883191866573, 50.929123234686777 ], [ 4.70069347524397, 50.929324393161586 ], [ 4.700643191213846, 50.92935417440895 ], [ 4.700607783401002, 50.929445462260098 ], [ 4.700568171329898, 50.929454695848115 ], [ 4.700500746728992, 50.929607626524003 ], [ 4.700197498488611, 50.929574312626023 ], [ 4.700025879094587, 50.929784535954603 ], [ 4.700005477849437, 50.929955566905285 ], [ 4.700428759584989, 50.930125310191642 ], [ 4.703743949370534, 50.930633110469536 ], [ 4.703310077690619, 50.932464919143278 ], [ 4.704870068765891, 50.932679184188203 ], [ 4.704914499341988, 50.932834067798893 ], [ 4.704608425588201, 50.933400314169511 ], [ 4.704700054868432, 50.933596092271827 ], [ 4.705332652659199, 50.933769761476633 ], [ 4.705603212071713, 50.933768964210152 ], [ 4.705757777190546, 50.933693280948418 ], [ 4.705970568589185, 50.933197975206696 ], [ 4.706156721417353, 50.933003657817054 ], [ 4.706333568327278, 50.933014533629958 ], [ 4.707039732085348, 50.933379464596825 ], [ 4.707004097121824, 50.93343884025338 ], [ 4.707017454068999, 50.933780744030422 ], [ 4.706836479878813, 50.934187052239636 ], [ 4.706096435934546, 50.935584367311087 ], [ 4.705779552416471, 50.93615292777671 ], [ 4.705444538676956, 50.936710142587444 ], [ 4.705034325984895, 50.9373450846998 ], [ 4.704620964326413, 50.938043863803195 ], [ 4.704311681179038, 50.93866938789786 ], [ 4.704179548943866, 50.938854424906296 ], [ 4.703993046409594, 50.939005427011089 ], [ 4.703856500280741, 50.939081054926604 ], [ 4.703615475989706, 50.939177505472976 ], [ 4.703522240052597, 50.939255285676808 ], [ 4.703315858766332, 50.93964798436528 ], [ 4.703084268560459, 50.940047595250434 ], [ 4.703070204373034, 50.940097787976576 ], [ 4.703059697982102, 50.940141131439809 ], [ 4.70304920827902, 50.940186754469586 ], [ 4.703049542424612, 50.940232345830417 ], [ 4.703064341826352, 50.940282454101876 ], [ 4.703071808372695, 50.940316626508469 ], [ 4.702910251670336, 50.940426520706488 ], [ 4.70283463454454, 50.940447258378462 ], [ 4.702704780899147, 50.940452197219315 ], [ 4.702383054290701, 50.94036879130249 ], [ 4.702252650750357, 50.940298503898269 ], [ 4.702522134910257, 50.939652585362062 ], [ 4.702613854878914, 50.93936736521681 ], [ 4.702673219740677, 50.93909819686133 ], [ 4.702689022710591, 50.938792681895343 ], [ 4.702665857015486, 50.938585304369447 ], [ 4.702529097753961, 50.938138898825201 ], [ 4.702494285791297, 50.936832778982101 ], [ 4.701715895218646, 50.935471837768198 ], [ 4.701679419976009, 50.935417233195629 ], [ 4.701549247476588, 50.935376579335561 ], [ 4.701458858354405, 50.935349487188965 ], [ 4.701433405761334, 50.93532220587624 ], [ 4.701400688167489, 50.935288106853577 ], [ 4.701312211522147, 50.935028487764413 ], [ 4.701180960467692, 50.934839661313276 ], [ 4.701082610071386, 50.934710009125361 ], [ 4.700929798737279, 50.934532643208271 ], [ 4.700367318353868, 50.934078353460734 ], [ 4.700121015686566, 50.933942291045206 ], [ 4.698178976138471, 50.93377921734772 ], [ 4.697601913844611, 50.933799117547416 ], [ 4.697433078494755, 50.9333983903879 ], [ 4.697429792128035, 50.932942475642236 ], [ 4.697825914856306, 50.932845590690746 ], [ 4.698278337396807, 50.932552494501138 ], [ 4.698449414390367, 50.932264768379319 ], [ 4.698502747277946, 50.931658234934709 ], [ 4.698512264294056, 50.930978879960435 ], [ 4.698546655257587, 50.930746259120802 ], [ 4.698751651725865, 50.930162083397306 ], [ 4.698914644638257, 50.929755839292376 ], [ 4.698955256703391, 50.929386422823285 ], [ 4.698994778711623, 50.92886655425427 ], [ 4.700883191866573, 50.929123234686777 ] ] } },
{ "type": "Feature", "properties": { "fid": 2, "name": "Wijgmaalbroek", "date_created": null, "type": "Variant", "Nr": "1a" }, "geometry": { "type": "LineString", "coordinates": [ [ 4.703743949370534, 50.930633110469536 ], [ 4.704332642646376, 50.930099322058624 ], [ 4.705022720255918, 50.929187888822625 ], [ 4.706261949194803, 50.92880132778982 ], [ 4.706690387904296, 50.929383994891111 ], [ 4.707163711400141, 50.929889946031686 ], [ 4.707696070986704, 50.930185121266085 ], [ 4.707974842937388, 50.931007544188979 ], [ 4.708008553748727, 50.931466932445275 ], [ 4.70799717709806, 50.931974317831646 ], [ 4.70747296577588, 50.932779976977159 ], [ 4.707039732085348, 50.933379464596825 ] ] } },
{ "type": "Feature", "properties": { "fid": 3, "name": "Abdij Van Vlierbeek", "date_created": null, "type": "Main Route", "Nr": "2" }, "geometry": { "type": "LineString", "coordinates": [ [ 4.734135813096982, 50.891928813467459 ], [ 4.734681003090357, 50.892066628158432 ], [ 4.73538490149351, 50.891813299053766 ], [ 4.736057413893998, 50.89130893522222 ], [ 4.736609059735808, 50.890395699795867 ], [ 4.741604169925863, 50.891654158812557 ], [ 4.744611217027627, 50.89253745516006 ], [ 4.746246760205011, 50.892932143941159 ], [ 4.747984745124074, 50.89326137101385 ], [ 4.748163172424082, 50.893502621310368 ], [ 4.746402509620983, 50.894010566186559 ], [ 4.744417711836959, 50.894082053068253 ], [ 4.742140045177071, 50.89431255800222 ], [ 4.741008556564902, 50.894427770535351 ], [ 4.740947146860559, 50.894102428355652 ], [ 4.741064130796078, 50.8940183471613 ], [ 4.741058146906709, 50.893264979848645 ], [ 4.738764329072604, 50.893309449434774 ], [ 4.737895950983778, 50.893219177547266 ], [ 4.737573374115444, 50.893341107120627 ], [ 4.737500576470031, 50.893434346865597 ], [ 4.737451190505615, 50.894634339313782 ], [ 4.73509927686937, 50.89478123147547 ], [ 4.73466466120525, 50.893740870665717 ], [ 4.734544763109095, 50.893452912086083 ], [ 4.734681148308647, 50.892085229836951 ] ] } },
{ "type": "Feature", "properties": { "fid": 4, "name": "Provinciaal Domein", "date_created": null, "type": "Main Route", "Nr": "3" }, "geometry": { "type": "LineString", "coordinates": [ [ 4.73466466120525, 50.893740870665717 ], [ 4.730164983644579, 50.893801340546723 ], [ 4.730082514151863, 50.893595808952632 ], [ 4.729949161828919, 50.893538552722056 ], [ 4.73000144587546, 50.893094964316674 ], [ 4.729978939181333, 50.893036902073824 ], [ 4.729856809858296, 50.892992226494272 ], [ 4.729628605610926, 50.893018216793209 ], [ 4.729344814993084, 50.893046993643246 ], [ 4.72915903825298, 50.893032450975767 ], [ 4.728908754126019, 50.892996016287952 ], [ 4.728701801969809, 50.892857136303483 ], [ 4.728422179074634, 50.89283009176264 ], [ 4.727964163435337, 50.892552464948793 ], [ 4.727904913306184, 50.892496840209127 ], [ 4.727829960181891, 50.892311048707967 ], [ 4.727711532220058, 50.892209099897755 ], [ 4.727107325777563, 50.892043530229273 ], [ 4.725933297739612, 50.892363351018872 ], [ 4.725549820009229, 50.892215702407768 ], [ 4.724946964047434, 50.89222683766976 ], [ 4.7244505757093, 50.892702699612329 ], [ 4.72446789312297, 50.893046786172569 ], [ 4.723967473362058, 50.892992497948256 ], [ 4.723033193652166, 50.893906829964635 ], [ 4.721739200425406, 50.893929337382581 ], [ 4.721105580875765, 50.893763825509929 ], [ 4.720684748326884, 50.893537214450106 ], [ 4.720316053179427, 50.893398805467058 ], [ 4.719977503762903, 50.8933579660319 ], [ 4.719608916545929, 50.893233506088478 ], [ 4.719538102147774, 50.893596459190384 ], [ 4.719553782729453, 50.893726626980701 ], [ 4.719614486700756, 50.893977573628355 ], [ 4.719079939301799, 50.894276806701733 ], [ 4.718943114665127, 50.894663209281347 ], [ 4.718554577830576, 50.894822487674276 ], [ 4.718394958996539, 50.895111296579501 ], [ 4.718330098143809, 50.895288210008971 ], [ 4.718147688396847, 50.895479425531633 ], [ 4.718685380487174, 50.895598734605734 ], [ 4.719223492628801, 50.895773846245177 ], [ 4.719666119682542, 50.895963192981803 ], [ 4.720101780425972, 50.896203714691289 ], [ 4.720456453224638, 50.89643052631989 ], [ 4.720611608376275, 50.896527721507979 ], [ 4.720846918490626, 50.896527014695685 ], [ 4.721478894381173, 50.896469307789218 ], [ 4.721728981103062, 50.896477855773874 ], [ 4.721846600990814, 50.89647285088941 ], [ 4.721883578394311, 50.896500642599534 ], [ 4.721898705772291, 50.896556403287903 ], [ 4.721863024743993, 50.89670067702545 ], [ 4.722003851652586, 50.896603754223101 ], [ 4.722252864928446, 50.89647321864922 ], [ 4.722292471256269, 50.896358731324852 ], [ 4.722328475236544, 50.896257473806436 ], [ 4.723809376964831, 50.896389023838552 ], [ 4.724044395485911, 50.896349944676736 ], [ 4.724505860100664, 50.896111367873658 ], [ 4.725539012793511, 50.895625734760578 ], [ 4.726176116377969, 50.895278491653251 ], [ 4.726373234561754, 50.895091869183524 ], [ 4.72643163439089, 50.895035884620604 ], [ 4.726465142384367, 50.894849761271381 ], [ 4.726437035621004, 50.894780089168378 ], [ 4.726318320629057, 50.89464093567706 ], [ 4.726044339964294, 50.894390642941786 ], [ 4.725981616197719, 50.89387927614878 ], [ 4.726341745830754, 50.893856087676127 ], [ 4.726672125671016, 50.893788808955406 ], [ 4.726950687055194, 50.893676345064954 ], [ 4.727141566058304, 50.893516480801047 ], [ 4.727192076594189, 50.893390762021738 ], [ 4.727358525966026, 50.893401879057414 ], [ 4.727669321576497, 50.89341836696542 ], [ 4.728390231878867, 50.893458011320448 ], [ 4.728640303821011, 50.89346654459127 ], [ 4.729949161828919, 50.893538552722056 ] ] } },
{ "type": "Feature", "properties": { "fid": 5, "name": "Egenhovenbos", "date_created": null, "type": "Main Route", "Nr": "4" }, "geometry": { "type": "LineString", "coordinates": [ [ 4.681125001007223, 50.861842888041515 ], [ 4.679365112028938, 50.861018911437142 ], [ 4.676784899045906, 50.859807388620375 ], [ 4.67644283026288, 50.859679176991612 ], [ 4.67600842515178, 50.859609893733463 ], [ 4.67478711969093, 50.859448769754835 ], [ 4.672527848609827, 50.858797361082161 ], [ 4.671517297914355, 50.858530019425984 ], [ 4.671440064083979, 50.858631160746711 ], [ 4.671358712034982, 50.858668930749637 ], [ 4.670298602331015, 50.858767913311453 ], [ 4.670295316184311, 50.858833651160317 ], [ 4.670181337690394, 50.85898887828435 ], [ 4.668778412144347, 50.859999550605906 ], [ 4.667670771514015, 50.860793484173257 ], [ 4.666143436570127, 50.859750400232549 ], [ 4.665200925284082, 50.860269236042484 ], [ 4.665052106642042, 50.860196841104973 ], [ 4.664117060469818, 50.859548953473556 ], [ 4.663442560372889, 50.859043598703408 ], [ 4.663252302015607, 50.858868016818896 ], [ 4.662436797649016, 50.8583489260729 ], [ 4.662019339740017, 50.858018978561226 ], [ 4.662003961333526, 50.857932160429314 ], [ 4.664947867236489, 50.855438767188012 ], [ 4.666664953230238, 50.856603453592406 ], [ 4.668989329460508, 50.858184409592745 ], [ 4.669800953350296, 50.858665905322511 ], [ 4.669994386194084, 50.858754611803384 ], [ 4.670083372152856, 50.85875027465876 ], [ 4.670297652473732, 50.858764394541595 ] ] } },
{ "type": "Feature", "properties": { "fid": 6, "name": "Abdij Van 't Park", "date_created": null, "type": "Main Route", "Nr": "5" }, "geometry": { "type": "LineString", "coordinates": [ [ 4.713267650693873, 50.864332187539091 ], [ 4.714863838154958, 50.864284953732145 ], [ 4.715042246015125, 50.864282959816833 ], [ 4.715657173782501, 50.864401387248328 ], [ 4.715852089645787, 50.864751287393474 ], [ 4.716220067898844, 50.865002422702055 ], [ 4.716490315611485, 50.86519812262582 ], [ 4.716820746958513, 50.865384844442048 ], [ 4.717599437787957, 50.865865717203071 ], [ 4.717862856652144, 50.865765214667029 ], [ 4.718711949797352, 50.865585974892625 ], [ 4.719620256220778, 50.865424148748694 ], [ 4.721807243444541, 50.865052433300491 ], [ 4.723247110923119, 50.86478522488212 ], [ 4.723559390785214, 50.864713523633903 ], [ 4.723679455098973, 50.864656702044591 ], [ 4.724020035620874, 50.864421039675562 ], [ 4.724132847227453, 50.864324645871434 ], [ 4.724176394765587, 50.86426145699609 ], [ 4.724234086489721, 50.864077244268472 ], [ 4.724580620414542, 50.863787304033515 ], [ 4.725293649233187, 50.863244020497241 ], [ 4.725536544263158, 50.863038712902615 ], [ 4.725208679316962, 50.862887202099913 ], [ 4.723343549199378, 50.862599577804112 ], [ 4.721389693099988, 50.8625270239543 ], [ 4.718647870611667, 50.862432598656937 ], [ 4.716990712068443, 50.862373015749597 ], [ 4.715959372540344, 50.862340884073397 ], [ 4.713829439195343, 50.862267993152784 ], [ 4.713619182852439, 50.862349266541266 ], [ 4.713562238197947, 50.862482879820519 ], [ 4.713802343920165, 50.863309241648857 ], [ 4.714028106300209, 50.86399596725537 ], [ 4.714091793608499, 50.864305930268657 ] ] } },
{ "type": "Feature", "properties": { "fid": 7, "name": "Heverleebos", "date_created": null, "type": "Main Route", "Nr": "6" }, "geometry": { "type": "LineString", "coordinates": [ [ 4.695882344684984, 50.845632501495388 ], [ 4.695904174067323, 50.84557257948039 ], [ 4.695803965194489, 50.845558774618084 ], [ 4.695560087970972, 50.845147471361777 ], [ 4.694778148820906, 50.844140231373302 ], [ 4.692988698620509, 50.841660383235421 ], [ 4.691948473379751, 50.840278240246647 ], [ 4.690820223506933, 50.837405671193451 ], [ 4.689521271285359, 50.833944335895509 ], [ 4.689208438755104, 50.832918163220846 ], [ 4.689040967466282, 50.832821200670132 ], [ 4.68810644671439, 50.832491584417383 ], [ 4.687972268238867, 50.832383965717995 ], [ 4.687815354999155, 50.83220363644336 ], [ 4.687254801052024, 50.831536126987466 ], [ 4.686746331051522, 50.83089429569425 ], [ 4.686094159077723, 50.830377269440781 ], [ 4.685952197189135, 50.830213329543561 ], [ 4.685877081669722, 50.830067988272852 ], [ 4.685801934891992, 50.829917952036723 ], [ 4.685742344310723, 50.829875858542628 ], [ 4.685586351468731, 50.829829331147167 ], [ 4.680041922175832, 50.828816011781313 ], [ 4.677305593109074, 50.834316403415151 ], [ 4.681373568669199, 50.835084972250051 ], [ 4.679925222678036, 50.838046675469926 ], [ 4.683191723001873, 50.838657680697295 ], [ 4.680648052189468, 50.844167007047488 ], [ 4.684983766550496, 50.844915957148871 ], [ 4.689379650024895, 50.845767871866748 ], [ 4.69065662192257, 50.84598033536345 ], [ 4.690938739928204, 50.846026508811931 ], [ 4.691635490601984, 50.845977638801578 ], [ 4.695140603481782, 50.845608750060265 ], [ 4.695288768650482, 50.845587209345773 ], [ 4.695529792265787, 50.845588884103108 ], [ 4.695874929069901, 50.845632522223141 ] ] } },
{ "type": "Feature", "properties": { "fid": 8, "name": "Vijvers Bellefroid", "date_created": null, "type": "Main Route", "Nr": "7" }, "geometry": { "type": "LineString", "coordinates": [ [ 4.701375512766401, 50.902996696625316 ], [ 4.701960288409269, 50.903119116751334 ], [ 4.702071357277009, 50.903258014232307 ], [ 4.702492291378211, 50.903223526014123 ], [ 4.703621643708841, 50.903199119537931 ], [ 4.703687518167196, 50.903710389048577 ], [ 4.703612195324859, 50.903886134176993 ], [ 4.703762511913957, 50.904158078468768 ], [ 4.703955667480343, 50.904396609880649 ], [ 4.704012169744897, 50.904935143236244 ], [ 4.704097087624323, 50.905431225914853 ], [ 4.704156580871107, 50.905718561335078 ], [ 4.704116796966096, 50.906178684222802 ], [ 4.70412190824343, 50.906224065220741 ], [ 4.704181879319038, 50.906577979439895 ], [ 4.70420776136726, 50.906850279066518 ], [ 4.704162887230849, 50.907268047148257 ], [ 4.704194899452409, 50.907727964348716 ], [ 4.704272632007622, 50.907888139634139 ], [ 4.704309367254306, 50.908338964082503 ], [ 4.704233497534494, 50.908439051596019 ], [ 4.704004370478828, 50.908527472066197 ], [ 4.703813145625649, 50.908561309020996 ], [ 4.703722417046475, 50.908591832100043 ], [ 4.702999945712295, 50.908636264026619 ], [ 4.702392351158247, 50.908680364526852 ], [ 4.702186398573473, 50.908662792421708 ], [ 4.70208536344446, 50.908590446891466 ], [ 4.702220253735424, 50.908039263318315 ], [ 4.702223166161558, 50.907775960570859 ], [ 4.70219345636903, 50.907636831933374 ], [ 4.702135006403495, 50.907494758670389 ], [ 4.70174896987481, 50.90705703202444 ], [ 4.701585285462192, 50.906924336562213 ], [ 4.701392217488052, 50.906697906681849 ], [ 4.701257017318283, 50.90653183978467 ], [ 4.701040407160685, 50.906359950839978 ], [ 4.700899736305886, 50.906097055050687 ], [ 4.700831140380338, 50.905873297731368 ], [ 4.700777204210122, 50.905691868072957 ], [ 4.700771131124164, 50.905510302784904 ], [ 4.700789182355318, 50.905355906512497 ], [ 4.700849580233364, 50.905098493470518 ], [ 4.700929637199106, 50.904913657666022 ], [ 4.701066118911272, 50.904586422138308 ], [ 4.701089684839496, 50.904534906918009 ], [ 4.70123743321124, 50.904446722909881 ], [ 4.701341332304046, 50.904249713628211 ], [ 4.701559774903131, 50.904006983344573 ], [ 4.701539190257312, 50.903804274573808 ], [ 4.701676503153135, 50.903595064547702 ], [ 4.702066549711198, 50.903255001529679 ] ] } }
]
}
